DMSP 5D-3 F16 (USA 172) 
1 28054U 03048A   26168.88435507 -.00000028  00000+0  91876-5 0  9993
2 28054  98.9890 192.7173 0007785 138.4256 345.7380 14.14483189169582
METEOSAT-9 (MSG-2)      
1 28912U 05049B   26168.83963522  .00000114  00000+0  00000+0 0  9995
2 28912   9.3634  54.1628 0001660 344.5140 215.3198  1.00272435  7009
DMSP 5D-3 F17 (USA 191) 
1 29522U 06050A   26168.80609800 -.00000020  00000+0  11871-4 0  9999
2 29522  98.7378 175.3635 0011153  57.7719 302.4534 14.14993052 12519
FENGYUN 3A              
1 32958U 08026A   26168.82264941  .00000055  00000+0  46601-4 0  9992
2 32958  98.6883 109.6439 0009615 121.9890 238.2222 14.19571285935498
GOES 14                 
1 35491U 09033A   26168.87311771 -.00000300  00000+0  00000+0 0  9997
2 35491   1.6926  83.0322 0001784  11.7115 267.1319  1.00110635  6598
DMSP 5D-3 F18 (USA 210) 
1 35951U 09057A   26168.84823449  .00000216  00000+0  13477-3 0  9992
2 35951  98.9037 149.6158 0009907 247.4110 112.6015 14.14897107859683
EWS-G2 (GOES 15)        
1 36411U 10008A   26168.20650306  .00000013  00000+0  00000+0 0  9991
2 36411   1.2783  82.8597 0005417  42.2932 278.3795  1.00275998 59631
COMS 1                  
1 36744U 10032A   26168.83950402  .00000066  00000+0  00000+0 0  9994
2 36744   4.8074  75.3468 0011531  11.8661 191.9386  0.99162618 51090
FENGYUN 3B              
1 37214U 10059A   26168.87914669 -.00000295  00000+0 -12923-3 0  9992
2 37214  98.9615 214.8967 0021921 181.9492 288.1437 14.14840052807527
SUOMI NPP               
1 37849U 11061A   26168.83394587  .00000054  00000+0  46513-4 0  9991
2 37849  98.7953 109.7056 0001499   5.0948 355.0243 14.19517506758530
METEOSAT-10 (MSG-3)     
1 38552U 12035B   26167.91989406 -.00000009  00000+0  00000+0 0  9990
2 38552   4.6715  61.0232 0001486 328.8582 206.8187  1.00276823 50856
METOP-B                 
1 38771U 12049A   26168.82314677  .00000079  00000+0  55884-4 0  9992
2 38771  98.6504 220.3097 0002197  18.1455 341.9801 14.21432878713351
INSAT-3D                
1 39216U 13038B   26168.85120405 -.00000345  00000+0  00000+0 0  9995
2 39216   1.9285  82.5305 0000577 315.2630 304.2400  1.00268872 47086
FENGYUN 3C              
1 39260U 13052A   26168.82122313  .00000057  00000+0  50054-4 0  9995
2 39260  98.4987 142.6669 0015227  25.8728 334.3205 14.15755109658658
METEOR-M 2              
1 40069U 14037A   26168.84950384 -.00000050  00000+0 -34188-5 0  9993
2 40069  98.5113 144.5645 0006728  42.6891 317.4808 14.21461001619412
HIMAWARI-8              
1 40267U 14060A   26168.85337073 -.00000281  00000+0  00000+0 0  9999
2 40267   0.0105  24.5790 0001032  66.1744 263.2277  1.00271407 42768
FENGYUN 2G              
1 40367U 14090A   26168.77395412 -.00000310  00000+0  00000+0 0  9998
2 40367   5.6410  72.8081 0004013 158.0009  53.5218  1.00271765 42004
METEOSAT-11 (MSG-4)     
1 40732U 15034A   26168.25712117  .00000060  00000+0  00000+0 0  9992
2 40732   3.2014  71.1096 0001741  11.8883 284.7520  1.00280400  7217
ELEKTRO-L 2             
1 41105U 15074A   26167.63786162 -.00000124  00000+0  00000+0 0  9995
2 41105   6.6931  70.5258 0000972 242.2635 167.2330  1.00270425 38506
SENTINEL-3A             
1 41335U 16011A   26168.84772130  .00000092  00000+0  56200-4 0  9997
2 41335  98.6249 236.2219 0001407 101.8413 258.2926 14.26740180538150
INSAT-3DR               
1 41752U 16054A   26168.84019735 -.00000082  00000+0  00000+0 0  9994
2 41752   0.1083  86.2823 0010565 187.5513   8.6946  1.00270968 35823
HIMAWARI-9              
1 41836U 16064A   26168.85337073 -.00000280  00000+0  00000+0 0  9997
2 41836   0.0155 283.0038 0000938 207.6136 223.4578  1.00270553 35219
GOES 16                 
1 41866U 16071A   26168.66217425 -.00000096  00000+0  00000+0 0  9990
2 41866   0.3432  85.5123 0000233 311.7942   2.2946  1.00271031 35105
FENGYUN 4A              
1 41882U 16077A   26168.65560394 -.00000363  00000+0  00000+0 0  9996
2 41882   2.3247  80.2847 0008604 153.2146  32.1766  1.00268375 34938
CYGFM05                 
1 41884U 16078A   26168.62835140  .00019269  00000+0  26108-3 0  9995
2 41884  34.9565 257.6688 0007011 155.8630 204.2423 15.56688646528825
CYGFM04                 
1 41885U 16078B   26168.53365447  .00023569  00000+0  26530-3 0  9991
2 41885  34.9311 225.9685 0006748 198.5401 161.5079 15.61530426529052
CYGFM02                 
1 41886U 16078C   26168.53367601  .00027107  00000+0  27097-3 0  9997
2 41886  34.9390 220.4939 0007770 199.5292 160.5137 15.64521931529224
CYGFM01                 
1 41887U 16078D   26168.61687454  .00019933  00000+0  26326-3 0  9990
2 41887  34.9394 258.7983 0006779 149.0020 211.1105 15.57366631528772
CYGFM08                 
1 41888U 16078E   26168.57561980  .00022448  00000+0  26759-3 0  9996
2 41888  34.9420 238.6407 0008409 181.0555 179.0154 15.60037208529037
CYGFM07                 
1 41890U 16078G   26168.53473553  .00021393  00000+0  25426-3 0  9991
2 41890  34.9433 227.2545 0007144 197.5321 162.5158 15.60133044529057
CYGFM03                 
1 41891U 16078H   26168.56973259  .00022653  00000+0  26922-3 0  9995
2 41891  34.9388 228.9588 0006561 185.7876 174.2774 15.60130523529039
FENGYUN 3D              
1 43010U 17072A   26168.85210832 -.00000154  00000+0 -51173-4 0  9999
2 43010  99.0125 143.2866 0002546  61.4566 298.6865 14.19738501445085
NOAA 20 (JPSS-1)        
1 43013U 17073A   26168.77668443  .00000042  00000+0  40771-4 0  9995
2 43013  98.7770 108.2340 0000299 101.6451 258.4759 14.19511809444558
GOES 17                 
1 43226U 18022A   26168.80784095 -.00000188  00000+0  00000+0 0  9990
2 43226   0.9395  85.6996 0000444  29.8966 351.7667  1.00269625 30436
SENTINEL-3B             
1 43437U 18039A   26168.82087780  .00000085  00000+0  52992-4 0  9998
2 43437  98.6248 236.3440 0000723  90.0659 270.0604 14.26734886424214
FENGYUN 2H              
1 43491U 18050A   26168.84123735 -.00000136  00000+0  00000+0 0  9990
2 43491   3.0331  79.0630 0001970 138.6595  70.6119  1.00269473 29447
METOP-C                 
1 43689U 18087A   26168.77192110  .00000088  00000+0  60255-4 0  9992
2 43689  98.6645 228.3649 0001785 128.7330 231.4007 14.21512296394915
GEO-KOMPSAT-2A          
1 43823U 18100A   26168.85094405 -.00000349  00000+0  00000+0 0  9993
2 43823   0.0511 159.8127 0001810 288.0823 252.8033  1.00269506 27633
METEOR-M2 2             
1 44387U 19038A   26168.80664193  .00000063  00000+0  47124-4 0  9997
2 44387  98.9140 156.1012 0002055  47.0713 313.0638 14.24365985361381
ARKTIKA-M 1             
1 47719U 21016A   26168.49069990 -.00000210  00000+0  00000+0 0  9999
2 47719  63.2922  57.5948 7288528 269.9420  14.6012  2.00622504 38796
FENGYUN 3E              
1 49008U 21062A   26168.83589880  .00000107  00000+0  71054-4 0  9992
2 49008  98.7487 172.2365 0002836  85.1427 275.0073 14.19904762256671
GOES 18                 
1 51850U 22021A   26168.79813424  .00000091  00000+0  00000+0 0  9995
2 51850   0.0198 176.3163 0000321 336.8447 263.2028  1.00270613  6590
NOAA 21 (JPSS-2)        
1 54234U 22150A   26168.80956441  .00000033  00000+0  36059-4 0  9990
2 54234  98.7059 107.5884 0001707 152.4473 207.6794 14.19565527186636
METEOSAT-12 (MTG-I1)    
1 54743U 22170C   26168.82549073 -.00000014  00000+0  00000+0 0  9990
2 54743   0.7394  23.1170 0003195  71.1853 108.5395  1.00272787 12980
TIANMU-1 03             
1 55973U 23039A   26168.82623297  .00013149  00000+0  25948-3 0  9996
2 55973  97.5233 342.8198 0004181  97.1155 263.0570 15.47300177180936
TIANMU-1 04             
1 55974U 23039B   26168.81546284  .00013395  00000+0  25886-3 0  9990
2 55974  97.5169 341.9624 0004846  94.2333 265.9471 15.47898586180941
TIANMU-1 05             
1 55975U 23039C   26168.80702648  .00012297  00000+0  24344-3 0  9996
2 55975  97.5216 342.4144 0003992 113.6342 246.5327 15.47226423180912
TIANMU-1 06             
1 55976U 23039D   26168.81888032  .00012985  00000+0  25186-3 0  9999
2 55976  97.5221 343.0633 0004377 109.2462 250.9261 15.47802123180947
FENGYUN 3G              
1 56232U 23055A   26168.87876837  .00020848  00000+0  33801-3 0  9999
2 56232  49.9937 342.4568 0007006 299.2797  60.7469 15.52656975180115
METEOR-M2 3             
1 57166U 23091A   26168.87135682 -.00000096  00000+0 -23177-4 0  9993
2 57166  98.6099 223.8356 0004342 153.9499 206.1899 14.24046768154614
TIANMU-1 07             
1 57399U 23101A   26168.81964405  .00005247  00000+0  18427-3 0  9992
2 57399  97.2587 219.4735 0004126 120.1234 240.0417 15.29814247161740
TIANMU-1 08             
1 57400U 23101B   26168.85169380  .00005061  00000+0  17775-3 0  9997
2 57400  97.2576 219.2754 0005599 113.3974 246.7857 15.29819087161748
TIANMU-1 09             
1 57401U 23101C   26168.83509512  .00005306  00000+0  18609-3 0  9990
2 57401  97.2534 218.6746 0004613 125.1320 235.0353 15.29850396161749
TIANMU-1 10             
1 57402U 23101D   26168.86815819  .00005352  00000+0  18779-3 0  9993
2 57402  97.2613 219.7581 0006189 124.4303 235.7524 15.29822240161744
FENGYUN 3F              
1 57490U 23111A   26168.81980198  .00000031  00000+0  35184-4 0  9998
2 57490  98.6836 238.8167 0001593  93.0200 267.1158 14.19939181148957
ARKTIKA-M 2             
1 58584U 23198A   26160.78386103  .00000212  00000+0  00000+0 0  9997
2 58584  63.2205 155.1874 6900401 267.4353  18.7899  2.00606537 18179
TIANMU-1 11             
1 58645U 23205A   26168.83986494  .00004396  00000+0  16849-3 0  9996
2 58645  97.3442 190.3865 0008877  14.9344 345.2155 15.27001493137622
TIANMU-1 12             
1 58646U 23205B   26168.81024544  .00004698  00000+0  18014-3 0  9995
2 58646  97.3431 190.1130 0006648   1.5794 358.5465 15.26966062137609
TIANMU-1 13             
1 58647U 23205C   26168.84248612  .00004538  00000+0  17490-3 0  9993
2 58647  97.3458 190.4174 0005836 338.8994  21.2003 15.26819750137609
